{
  "type": "FeatureCollection",
  "features": [
    {
      "type": "Feature",
      "properties": {
        "norad_id": 33412,
        "name": "COSMO-SKYMED 3",
        "group": "resource",
        "lat": 61.085420145417146,
        "lon": 28.69844489266197,
        "alt_km": 540.1239678653355,
        "timestamp": "2025-12-09T21:34:11.063691+00:00",
        "meta_object_name": "COSMO-SKYMED 3",
        "meta_object_id": "2008-054A",
        "meta_epoch": "2025-12-09T14:39:56.612160",
        "meta_mean_motion": 15.05302808,
        "meta_eccentricity": 0.0015922,
        "meta_inclination": 97.8457,
        "meta_ra_of_asc_node": 193.95,
        "meta_arg_of_pericenter": 184.7313,
        "meta_mean_anomaly": 175.3765,
        "meta_ephemeris_type": 0,
        "meta_classification_type": "U",
        "meta_norad_cat_id": 33412,
        "meta_element_set_no": 999,
        "meta_rev_at_epoch": 92840,
        "meta_bstar": 0.00035246287,
        "meta_mean_motion_dot": 4.991e-05,
        "meta_mean_motion_ddot": 0,
        "tle_line1": "1 33412U 08054A   25343.61107190  .00004991  00000+0  35246-3 0  9997",
        "tle_line2": "2 33412  97.8457 193.9500 0015922 184.7313 175.3765 15.05302808928407"
      },
      "geometry": {
        "type": "Point",
        "coordinates": [
          28.69844489266197,
          61.085420145417146
        ]
      }
    },
    {
      "type": "Feature",
      "properties": {
        "norad_id": 33446,
        "name": "YAOGAN-4",
        "group": "resource",
        "lat": -29.079870838404982,
        "lon": -81.53504724956345,
        "alt_km": 617.1413070730368,
        "timestamp": "2025-12-09T21:34:11.063702+00:00",
        "meta_object_name": "YAOGAN-4",
        "meta_object_id": "2008-061A",
        "meta_epoch": "2025-12-09T13:36:11.546784",
        "meta_mean_motion": 14.82667849,
        "meta_eccentricity": 0.00138508,
        "meta_inclination": 97.918,
        "meta_ra_of_asc_node": 273.6972,
        "meta_arg_of_pericenter": 334.0999,
        "meta_mean_anomaly": 25.9519,
        "meta_ephemeris_type": 0,
        "meta_classification_type": "U",
        "meta_norad_cat_id": 33446,
        "meta_element_set_no": 999,
        "meta_rev_at_epoch": 91756,
        "meta_bstar": 0.00035667818,
        "meta_mean_motion_dot": 2.827e-05,
        "meta_mean_motion_ddot": 0,
        "tle_line1": "1 33446U 08061A   25343.56680031  .00002827  00000+0  35668-3 0  9990",
        "tle_line2": "2 33446  97.9180 273.6972 0013850 334.0999  25.9519 14.82667849917560"
      },
      "geometry": {
        "type": "Point",
        "coordinates": [
          -81.53504724956345,
          -29.079870838404982
        ]
      }
    },
    {
      "type": "Feature",
      "properties": {
        "norad_id": 33492,
        "name": "GOSAT (IBUKI)",
        "group": "resource",
        "lat": 2.6316371600731725,
        "lon": -87.08459018695936,
        "alt_km": 671.5587117554123,
        "timestamp": "2025-12-09T21:34:11.063713+00:00",
        "meta_object_name": "GOSAT (IBUKI)",
        "meta_object_id": "2009-002A",
        "meta_epoch": "2025-12-09T14:13:09.766560",
        "meta_mean_motion": 14.67546239,
        "meta_eccentricity": 9.535e-05,
        "meta_inclination": 98.0769,
        "meta_ra_of_asc_node": 92.2395,
        "meta_arg_of_pericenter": 88.1304,
        "meta_mean_anomaly": 272.001,
        "meta_ephemeris_type": 0,
        "meta_classification_type": "U",
        "meta_norad_cat_id": 33492,
        "meta_element_set_no": 999,
        "meta_rev_at_epoch": 90365,
        "meta_bstar": 0.00030271932,
        "meta_mean_motion_dot": 1.669e-05,
        "meta_mean_motion_ddot": 0,
        "tle_line1": "1 33492U 09002A   25343.59247415  .00001669  00000+0  30272-3 0  9994",
        "tle_line2": "2 33492  98.0769  92.2395 0000953  88.1304 272.0010 14.67546239903655"
      },
      "geometry": {
        "type": "Point",
        "coordinates": [
          -87.08459018695936,
          2.6316371600731725
        ]
      }
    },
    {
      "type": "Feature",
      "properties": {
        "norad_id": 35681,
        "name": "DEIMOS-1",
        "group": "resource",
        "lat": 0.33755942498185537,
        "lon": -35.320410014713076,
        "alt_km": 648.5061883510698,
        "timestamp": "2025-12-09T21:34:11.063724+00:00",
        "meta_object_name": "DEIMOS-1",
        "meta_object_id": "2009-041A",
        "meta_epoch": "2025-12-09T14:14:45.179808",
        "meta_mean_motion": 14.74944345,
        "meta_eccentricity": 0.00027176,
        "meta_inclination": 97.7147,
        "meta_ra_of_asc_node": 144.343,
        "meta_arg_of_pericenter": 84.3673,
        "meta_mean_anomaly": 275.7847,
        "meta_ephemeris_type": 0,
        "meta_classification_type": "U",
        "meta_norad_cat_id": 35681,
        "meta_element_set_no": 999,
        "meta_rev_at_epoch": 87893,
        "meta_bstar": 0.00014331753,
        "meta_mean_motion_dot": 9.15e-06,
        "meta_mean_motion_ddot": 0,
        "tle_line1": "1 35681U 09041A   25343.59357847  .00000915  00000+0  14332-3 0  9992",
        "tle_line2": "2 35681  97.7147 144.3430 0002717  84.3673 275.7847 14.74944345878937"
      },
      "geometry": {
        "type": "Point",
        "coordinates": [
          -35.320410014713076,
          0.33755942498185537
        ]
      }
    },
    {
      "type": "Feature",
      "properties": {
        "norad_id": 35682,
        "name": "DUBAISAT-1",
        "group": "resource",
        "lat": 60.96930814880035,
        "lon": -50.741165004178725,
        "alt_km": 646.6566943775351,
        "timestamp": "2025-12-09T21:34:11.063735+00:00",
        "meta_object_name": "DUBAISAT-1",
        "meta_object_id": "2009-041B",
        "meta_epoch": "2025-12-09T14:31:20.716896",
        "meta_mean_motion": 14.7459077,
        "meta_eccentricity": 0.00097595,
        "meta_inclination": 97.979,
        "meta_ra_of_asc_node": 114.3312,
        "meta_arg_of_pericenter": 325.4313,
        "meta_mean_anomaly": 34.626,
        "meta_ephemeris_type": 0,
        "meta_classification_type": "U",
        "meta_norad_cat_id": 35682,
        "meta_element_set_no": 999,
        "meta_rev_at_epoch": 87715,
        "meta_bstar": 0.00037727159,
        "meta_mean_motion_dot": 2.465e-05,
        "meta_mean_motion_ddot": 0,
        "tle_line1": "1 35682U 09041B   25343.60510089  .00002465  00000+0  37727-3 0  9999",
        "tle_line2": "2 35682  97.9790 114.3312 0009759 325.4313  34.6260 14.74590770877156"
      },
      "geometry": {
        "type": "Point",
        "coordinates": [
          -50.741165004178725,
          60.96930814880035
        ]
      }
    },
    {
      "type": "Feature",
      "properties": {
        "norad_id": 35931,
        "name": "OCEANSAT-2",
        "group": "resource",
        "lat": -18.933497982769865,
        "lon": -12.369432879966102,
        "alt_km": 896.3033843736057,
        "timestamp": "2025-12-09T21:34:11.063746+00:00",
        "meta_object_name": "OCEANSAT-2",
        "meta_object_id": "2009-051A",
        "meta_epoch": "2025-12-09T14:47:52.817856",
        "meta_mean_motion": 13.99625376,
        "meta_eccentricity": 0.00163336,
        "meta_inclination": 98.2225,
        "meta_ra_of_asc_node": 344.534,
        "meta_arg_of_pericenter": 53.2054,
        "meta_mean_anomaly": 307.0608,
        "meta_ephemeris_type": 0,
        "meta_classification_type": "U",
        "meta_norad_cat_id": 35931,
        "meta_element_set_no": 999,
        "meta_rev_at_epoch": 85281,
        "meta_bstar": -7.4262248e-05,
        "meta_mean_motion_dot": -1.46e-06,
        "meta_mean_motion_ddot": 0,
        "tle_line1": "1 35931U 09051A   25343.61658354 -.00000146  00000+0 -74262-4 0  9998",
        "tle_line2": "2 35931  98.2225 344.5340 0016333  53.2054 307.0608 13.99625376852818"
      },
      "geometry": {
        "type": "Point",
        "coordinates": [
          -12.369432879966102,
          -18.933497982769865
        ]
      }
    },
    {
      "type": "Feature",
      "properties": {
        "norad_id": 35946,
        "name": "WORLDVIEW-2 (WV-2)",
        "group": "resource",
        "lat": 71.67834017902808,
        "lon": 28.256957124099387,
        "alt_km": 755.5089326691423,
        "timestamp": "2025-12-09T21:34:11.063756+00:00",
        "meta_object_name": "WORLDVIEW-2 (WV-2)",
        "meta_object_id": "2009-055A",
        "meta_epoch": "2025-12-09T14:32:49.402176",
        "meta_mean_motion": 14.37650815,
        "meta_eccentricity": 0.0005362,
        "meta_inclination": 98.4763,
        "meta_ra_of_asc_node": 54.734,
        "meta_arg_of_pericenter": 74.5116,
        "meta_mean_anomaly": 285.6663,
        "meta_ephemeris_type": 0,
        "meta_classification_type": "U",
        "meta_norad_cat_id": 35946,
        "meta_element_set_no": 999,
        "meta_rev_at_epoch": 84840,
        "meta_bstar": 0.00013065894,
        "meta_mean_motion_dot": 3.49e-06,
        "meta_mean_motion_ddot": 0,
        "tle_line1": "1 35946U 09055A   25343.60612734  .00000349  00000+0  13066-3 0  9996",
        "tle_line2": "2 35946  98.4763  54.7340 0005362  74.5116 285.6663 14.37650815848409"
      },
      "geometry": {
        "type": "Point",
        "coordinates": [
          28.256957124099387,
          71.67834017902808
        ]
      }
    }
  ]
}